{
  "type": "FeatureCollection",
  "name": "municipality_boundary",
  "crs": {
    "type": "name",
    "properties": {
      "name": "EPSG:4326"
    }
  },
  "features": [
    {
      "type": "Feature",
      "geometry": {
        "type": "MultiPolygon",
        "coordinates": [
          [
            [
              [
                23.630965605,
                37.963957023
              ],
              [
                23.630049524,
                37.963828945
              ],
              [
                23.629497475,
                37.963793897
              ],
              [
                23.629289861,
                37.963788336
              ],
              [
                23.629128589,
                37.963814288
              ],
              [
                23.6285076,
                37.963908826
              ],
              [
                23.628500185,
                37.963834678
              ],
              [
                23.628502039,
                37.963310081
              ],
              [
                23.628491843,
                37.962250692
              ],
              [
                23.628506673,
                37.961245987
              ],
              [
                23.628527063,
                37.958771298
              ],
              [
                23.628521502,
                37.958094698
              ],
              [
                23.628528917,
                37.956919452
              ],
              [
                23.628536332,
                37.955875819
              ],
              [
                23.628514088,
                37.954732087
              ],
              [
                23.628517795,
                37.954361347
              ],
              [
                23.628532625,
                37.953621721
              ],
              [
                23.627446422,
                37.953609153
              ],
              [
                23.627464894,
                37.953100831
              ],
              [
                23.627484331,
                37.952437967
              ],
              [
                23.627553682,
                37.952438817
              ],
              [
                23.6279691,
                37.952079906
              ],
              [
                23.628147055,
                37.951979806
              ],
              [
                23.628465972,
                37.951779549
              ],
              [
                23.628769243,
                37.951775559
              ],
              [
                23.628785205,
                37.951364547
              ],
              [
                23.629965534,
                37.951379207
              ],
              [
                23.631185269,
                37.951379207
              ],
              [
                23.631318735,
                37.9513755
              ],
              [
                23.632505103,
                37.951386622
              ],
              [
                23.632605203,
                37.95139033
              ],
              [
                23.633777974,
                37.951395016
              ],
              [
                23.633845184,
                37.951395284
              ],
              [
                23.635110941,
                37.951399135
              ],
              [
                23.635111155,
                37.951385995
              ],
              [
                23.63511293,
                37.951332142
              ],
              [
                23.635130571,
                37.950738067
              ],
              [
                23.635132219,
                37.950684901
              ],
              [
                23.635141457,
                37.950371451
              ],
              [
                23.635146182,
                37.950317422
              ],
              [
                23.635150237,
                37.950292837
              ],
              [
                23.635218525,
                37.950293406
              ],
              [
                23.635260352,
                37.950201391
              ],
              [
                23.635349246,
                37.950201171
              ],
              [
                23.635384864,
                37.949911065
              ],
              [
                23.63540317,
                37.949780542
              ],
              [
                23.635403613,
                37.949688768
              ],
              [
                23.635409883,
                37.949385689
              ],
              [
                23.635410148,
                37.949331612
              ],
              [
                23.635333699,
                37.949137283
              ],
              [
                23.635334052,
                37.948787596
              ],
              [
                23.635378354,
                37.948445477
              ],
              [
                23.635410238,
                37.948159668
              ],
              [
                23.635520173,
                37.947213241
              ],
              [
                23.635535644,
                37.946942928
              ],
              [
                23.635512489,
                37.946741149
              ],
              [
                23.6353472,
                37.946276772
              ],
              [
                23.63515243,
                37.946042427
              ],
              [
                23.634921571,
                37.945811198
              ],
              [
                23.634501129,
                37.945513252
              ],
              [
                23.633890582,
                37.945205267
              ],
              [
                23.63355963,
                37.945080081
              ],
              [
                23.633361667,
                37.944935539
              ],
              [
                23.632843206,
                37.944507314
              ],
              [
                23.63259743,
                37.944017663
              ],
              [
                23.63169689,
                37.943200685
              ],
              [
                23.631600497,
                37.943304492
              ],
              [
                23.631641092,
                37.943430368
              ],
              [
                23.631548594,
                37.943525082
              ],
              [
                23.631457763,
                37.943506545
              ],
              [
                23.63141142,
                37.943476886
              ],
              [
                23.631315028,
                37.943551034
              ],
              [
                23.631402152,
                37.943647427
              ],
              [
                23.631365078,
                37.943675232
              ],
              [
                23.631198245,
                37.943819821
              ],
              [
                23.63114078,
                37.943782747
              ],
              [
                23.631112974,
                37.943793869
              ],
              [
                23.631062925,
                37.943758649
              ],
              [
                23.630973947,
                37.943843919
              ],
              [
                23.630488278,
                37.943424983
              ],
              [
                23.630295493,
                37.943350835
              ],
              [
                23.630273249,
                37.943387909
              ],
              [
                23.630156465,
                37.943317468
              ],
              [
                23.630015584,
                37.94352879
              ],
              [
                23.62930191,
                37.943242393
              ],
              [
                23.629136931,
                37.943173806
              ],
              [
                23.628208227,
                37.942757651
              ],
              [
                23.626968102,
                37.942226566
              ],
              [
                23.6264157,
                37.941985585
              ],
              [
                23.626567703,
                37.94175758
              ],
              [
                23.626195109,
                37.941596308
              ],
              [
                23.625483289,
                37.942617696
              ],
              [
                23.62452678,
                37.942200614
              ],
              [
                23.624502682,
                37.942235834
              ],
              [
                23.624250579,
                37.942122759
              ],
              [
                23.624265408,
                37.942087538
              ],
              [
                23.624237603,
                37.942069001
              ],
              [
                23.624801127,
                37.941279325
              ],
              [
                23.62451195,
                37.941164396
              ],
              [
                23.623972524,
                37.941959633
              ],
              [
                23.623012307,
                37.941545331
              ],
              [
                23.622285657,
                37.941237617
              ],
              [
                23.622838059,
                37.940439599
              ],
              [
                23.622011309,
                37.940076274
              ],
              [
                23.621579397,
                37.940083689
              ],
              [
                23.621549738,
                37.939153132
              ],
              [
                23.62211697,
                37.938650779
              ],
              [
                23.621964967,
                37.938552533
              ],
              [
                23.621698034,
                37.938750879
              ],
              [
                23.621414418,
                37.938984445
              ],
              [
                23.621395881,
                37.939421918
              ],
              [
                23.621460761,
                37.940636092
              ],
              [
                23.621023288,
                37.940758436
              ],
              [
                23.620533911,
                37.940917854
              ],
              [
                23.620311467,
                37.940954928
              ],
              [
                23.619977801,
                37.941017954
              ],
              [
                23.61973682,
                37.941132883
              ],
              [
                23.618950851,
                37.941144005
              ],
              [
                23.618594941,
                37.941144005
              ],
              [
                23.617582821,
                37.941162542
              ],
              [
                23.616874708,
                37.941566649
              ],
              [
                23.616518798,
                37.9417928
              ],
              [
                23.61614435,
                37.942041196
              ],
              [
                23.615740244,
                37.942311836
              ],
              [
                23.615599363,
                37.942430473
              ],
              [
                23.615565996,
                37.942482376
              ],
              [
                23.615569703,
                37.942593598
              ],
              [
                23.615565996,
                37.942741894
              ],
              [
                23.615439944,
                37.942701113
              ],
              [
                23.615302771,
                37.94299029
              ],
              [
                23.615250867,
                37.943268345
              ],
              [
                23.61523233,
                37.943653915
              ],
              [
                23.615039545,
                37.944165536
              ],
              [
                23.614902372,
                37.944521446
              ],
              [
                23.614746661,
                37.944502909
              ],
              [
                23.614757783,
                37.944614131
              ],
              [
                23.614885898,
                37.944624457
              ],
              [
                23.615180427,
                37.94464379
              ],
              [
                23.615554874,
                37.944662327
              ],
              [
                23.615881125,
                37.944662327
              ],
              [
                23.616389039,
                37.944680864
              ],
              [
                23.61681539,
                37.944903308
              ],
              [
                23.616882123,
                37.945059019
              ],
              [
                23.617145348,
                37.945018237
              ],
              [
                23.617725556,
                37.945303707
              ],
              [
                23.61756243,
                37.945676301
              ],
              [
                23.617034126,
                37.945726351
              ],
              [
                23.616400161,
                37.945744888
              ],
              [
                23.616392746,
                37.945692984
              ],
              [
                23.615883906,
                37.945731448
              ],
              [
                23.61587093,
                37.945813011
              ],
              [
                23.614630805,
                37.945664715
              ],
              [
                23.614247089,
                37.945968722
              ],
              [
                23.612956914,
                37.945764815
              ],
              [
                23.612940231,
                37.945825987
              ],
              [
                23.612975451,
                37.945829694
              ],
              [
                23.612930962,
                37.94600765
              ],
              [
                23.612882766,
                37.945998381
              ],
              [
                23.612866083,
                37.946083651
              ],
              [
                23.612984719,
                37.946104042
              ],
              [
                23.613006964,
                37.946020625
              ],
              [
                23.61296989,
                37.946009503
              ],
              [
                23.613006964,
                37.945863061
              ],
              [
                23.613045891,
                37.945872329
              ],
              [
                23.613053306,
                37.945824133
              ],
              [
                23.61361127,
                37.945918672
              ],
              [
                23.61423782,
                37.946011357
              ],
              [
                23.614400946,
                37.946303315
              ],
              [
                23.61442319,
                37.9462959
              ],
              [
                23.614484362,
                37.946377463
              ],
              [
                23.614653049,
                37.94634873
              ],
              [
                23.615016374,
                37.946686104
              ],
              [
                23.614790223,
                37.946821424
              ],
              [
                23.614864371,
                37.946895572
              ],
              [
                23.61502935,
                37.946789911
              ],
              [
                23.615322235,
                37.947112454
              ],
              [
                23.615021008,
                37.947298751
              ],
              [
                23.615128523,
                37.947404412
              ],
              [
                23.615306478,
                37.947291336
              ],
              [
                23.615699462,
                37.947701004
              ],
              [
                23.615795855,
                37.947935497
              ],
              [
                23.615933029,
                37.947989254
              ],
              [
                23.615983078,
                37.948100476
              ],
              [
                23.616090593,
                37.948083793
              ],
              [
                23.616199961,
                37.948304383
              ],
              [
                23.616670801,
                37.94847307
              ],
              [
                23.616989637,
                37.948542584
              ],
              [
                23.617295498,
                37.948603756
              ],
              [
                23.617390036,
                37.948709417
              ],
              [
                23.617716288,
                37.948744637
              ],
              [
                23.617530918,
                37.948759467
              ],
              [
                23.617323303,
                37.948731661
              ],
              [
                23.617267692,
                37.948685319
              ],
              [
                23.617002613,
                37.948629708
              ],
              [
                23.616774608,
                37.948594487
              ],
              [
                23.616741242,
                37.948605609
              ],
              [
                23.616707875,
                37.948651952
              ],
              [
                23.616720851,
                37.948735368
              ],
              [
                23.616720851,
                37.948766881
              ],
              [
                23.61670046,
                37.948792833
              ],
              [
                23.616654118,
                37.948794687
              ],
              [
                23.61661519,
                37.948772442
              ],
              [
                23.616596653,
                37.948790979
              ],
              [
                23.616639288,
                37.94881137
              ],
              [
                23.616678216,
                37.948854005
              ],
              [
                23.616776462,
                37.948878103
              ],
              [
                23.616845049,
                37.948904055
              ],
              [
                23.61657997,
                37.948978203
              ],
              [
                23.616305622,
                37.948948544
              ],
              [
                23.616324159,
                37.948863274
              ],
              [
                23.616136009,
                37.948841956
              ],
              [
                23.616004396,
                37.948835468
              ],
              [
                23.615860734,
                37.948812297
              ],
              [
                23.615784733,
                37.948717758
              ],
              [
                23.615719853,
                37.948636196
              ],
              [
                23.615674437,
                37.948588926
              ],
              [
                23.615592875,
                37.948474924
              ],
              [
                23.615477018,
                37.948350262
              ],
              [
                23.615765269,
                37.948177868
              ],
              [
                23.615731902,
                37.948145429
              ],
              [
                23.615545605,
                37.948259431
              ],
              [
                23.615441798,
                37.948320603
              ],
              [
                23.615337991,
                37.948194552
              ],
              [
                23.615306478,
                37.948169527
              ],
              [
                23.614836565,
                37.947858569
              ],
              [
                23.614592804,
                37.947698687
              ],
              [
                23.61438797,
                37.947661613
              ],
              [
                23.613413851,
                37.947493853
              ],
              [
                23.613361947,
                37.947486438
              ],
              [
                23.613338776,
                37.947493853
              ],
              [
                23.613321166,
                37.94751239
              ],
              [
                23.613412924,
                37.947803884
              ],
              [
                23.613133942,
                37.947836324
              ],
              [
                23.613046818,
                37.947850227
              ],
              [
                23.612867936,
                37.947892862
              ],
              [
                23.612745592,
                37.947900277
              ],
              [
                23.612675152,
                37.947872935
              ],
              [
                23.612850326,
                37.947720931
              ],
              [
                23.612778959,
                37.947637515
              ],
              [
                23.612636224,
                37.947769128
              ],
              [
                23.612592662,
                37.94774781
              ],
              [
                23.612558368,
                37.94778025
              ],
              [
                23.61241656,
                37.947651418
              ],
              [
                23.612267338,
                37.94752722
              ],
              [
                23.611999478,
                37.947372899
              ],
              [
                23.611763131,
                37.947301532
              ],
              [
                23.611535126,
                37.947237579
              ],
              [
                23.611294609,
                37.947182895
              ],
              [
                23.61104992,
                37.947177334
              ],
              [
                23.610603179,
                37.947041087
              ],
              [
                23.61008785,
                37.946921523
              ],
              [
                23.610000726,
                37.946915962
              ],
              [
                23.609787551,
                37.946943768
              ],
              [
                23.609500228,
                37.946995671
              ],
              [
                23.608945971,
                37.947129138
              ],
              [
                23.608515913,
                37.947251482
              ],
              [
                23.608100684,
                37.947400705
              ],
              [
                23.607841166,
                37.947558269
              ],
              [
                23.60774292,
                37.947551781
              ],
              [
                23.607702139,
                37.94778164
              ],
              [
                23.607602039,
                37.947777933
              ],
              [
                23.607513062,
                37.947535098
              ],
              [
                23.607314716,
                37.947542513
              ],
              [
                23.606764167,
                37.947006794
              ],
              [
                23.606115372,
                37.947436852
              ],
              [
                23.60620435,
                37.947527683
              ],
              [
                23.606682604,
                37.947201432
              ],
              [
                23.607105248,
                37.94759627
              ],
              [
                23.607019978,
                37.94764632
              ],
              [
                23.606953244,
                37.947724175
              ],
              [
                23.606932854,
                37.947809446
              ],
              [
                23.606940268,
                37.947913253
              ],
              [
                23.607014416,
                37.948063402
              ],
              [
                23.607019978,
                37.948213552
              ],
              [
                23.607014416,
                37.948537023
              ],
              [
                23.606947683,
                37.94854073
              ],
              [
                23.606949537,
                37.948785418
              ],
              [
                23.607045929,
                37.948785418
              ],
              [
                23.607038515,
                37.948924446
              ],
              [
                23.606914317,
                37.948924446
              ],
              [
                23.60283247,
                37.948887372
              ],
              [
                23.597757041,
                37.948816468
              ],
              [
                23.597745919,
                37.949036131
              ],
              [
                23.602771422,
                37.949099639
              ],
              [
                23.606936561,
                37.94914689
              ],
              [
                23.606997733,
                37.949376749
              ],
              [
                23.607164566,
                37.949955103
              ],
              [
                23.607309155,
                37.950461163
              ],
              [
                23.607475988,
                37.951113665
              ],
              [
                23.607691017,
                37.951938561
              ],
              [
                23.607998731,
                37.953017414
              ],
              [
                23.608303665,
                37.953014634
              ],
              [
                23.608870897,
                37.953088782
              ],
              [
                23.608902409,
                37.953179613
              ],
              [
                23.608933922,
                37.953194443
              ],
              [
                23.608991387,
                37.953209272
              ],
              [
                23.609226807,
                37.953242639
              ],
              [
                23.609267588,
                37.953244493
              ],
              [
                23.609325053,
                37.953229663
              ],
              [
                23.609369542,
                37.953188882
              ],
              [
                23.609460373,
                37.953049854
              ],
              [
                23.609621645,
                37.952847801
              ],
              [
                23.609894139,
                37.95272453
              ],
              [
                23.610080436,
                37.952678651
              ],
              [
                23.610309367,
                37.952677261
              ],
              [
                23.610481762,
                37.952738433
              ],
              [
                23.610704205,
                37.952762531
              ],
              [
                23.610880307,
                37.952762531
              ],
              [
                23.610956309,
                37.952795897
              ],
              [
                23.61096187,
                37.952890436
              ],
              [
                23.610969284,
                37.953057269
              ],
              [
                23.611006358,
                37.953144393
              ],
              [
                23.61103231,
                37.95321298
              ],
              [
                23.61103231,
                37.9532482
              ],
              [
                23.611000797,
                37.953288981
              ],
              [
                23.610575373,
                37.953284347
              ],
              [
                23.610407614,
                37.953332543
              ],
              [
                23.610289904,
                37.953353861
              ],
              [
                23.610128632,
                37.953390008
              ],
              [
                23.609995165,
                37.953235224
              ],
              [
                23.609916383,
                37.953270444
              ],
              [
                23.610013702,
                37.953394642
              ],
              [
                23.609775502,
                37.953397423
              ],
              [
                23.609426297,
                37.953394022
              ],
              [
                23.609116512,
                37.953412253
              ],
              [
                23.608896848,
                37.953438204
              ],
              [
                23.608548353,
                37.953519767
              ],
              [
                23.608397276,
                37.953652307
              ],
              [
                23.608280493,
                37.95372182
              ],
              [
                23.608154442,
                37.953640258
              ],
              [
                23.608106245,
                37.953684746
              ],
              [
                23.607813361,
                37.953503084
              ],
              [
                23.605915173,
                37.954203782
              ],
              [
                23.603012279,
                37.955308587
              ],
              [
                23.603086427,
                37.955464298
              ],
              [
                23.605651947,
                37.956774864
              ],
              [
                23.606378597,
                37.956504223
              ],
              [
                23.608343519,
                37.955755329
              ],
              [
                23.608970069,
                37.955521763
              ],
              [
                23.609359346,
                37.955384589
              ],
              [
                23.609500228,
                37.9555403
              ],
              [
                23.609830186,
                37.955870258
              ],
              [
                23.609985897,
                37.955992602
              ],
              [
                23.610367759,
                37.955988895
              ],
              [
                23.610482688,
                37.956085287
              ],
              [
                23.609800527,
                37.956348513
              ],
              [
                23.609014558,
                37.956671056
              ],
              [
                23.60959662,
                37.957646102
              ],
              [
                23.611465149,
                37.956912037
              ],
              [
                23.611995307,
                37.95670813
              ],
              [
                23.612303021,
                37.956585786
              ],
              [
                23.613578367,
                37.95680823
              ],
              [
                23.613643246,
                37.956906476
              ],
              [
                23.611752473,
                37.957603467
              ],
              [
                23.611867402,
                37.957786984
              ],
              [
                23.612165848,
                37.957811082
              ],
              [
                23.612343803,
                37.957844448
              ],
              [
                23.613037086,
                37.95795567
              ],
              [
                23.613398558,
                37.958027964
              ],
              [
                23.613148308,
                37.958986327
              ],
              [
                23.612807228,
                37.958930716
              ],
              [
                23.611932281,
                37.95878242
              ],
              [
                23.61087938,
                37.958648954
              ],
              [
                23.607609454,
                37.959913177
              ],
              [
                23.607149737,
                37.960089278
              ],
              [
                23.606838315,
                37.960322845
              ],
              [
                23.605266378,
                37.958977059
              ],
              [
                23.604697292,
                37.958482121
              ],
              [
                23.603151307,
                37.958749054
              ],
              [
                23.603062329,
                37.958813933
              ],
              [
                23.603801955,
                37.959449752
              ],
              [
                23.604421091,
                37.95997991
              ],
              [
                23.605700143,
                37.961064324
              ],
              [
                23.605523115,
                37.961190376
              ],
              [
                23.605514773,
                37.961247841
              ],
              [
                23.607864338,
                37.962463404
              ],
              [
                23.607944974,
                37.962556553
              ],
              [
                23.608070098,
                37.963193298
              ],
              [
                23.608537231,
                37.963989926
              ],
              [
                23.608545572,
                37.964222102
              ],
              [
                23.608512206,
                37.964447326
              ],
              [
                23.608286981,
                37.965013168
              ],
              [
                23.60828142,
                37.965408006
              ],
              [
                23.60827864,
                37.965827869
              ],
              [
                23.608184101,
                37.966100363
              ],
              [
                23.60802839,
                37.966264415
              ],
              [
                23.606810519,
                37.966953996
              ],
              [
                23.606276644,
                37.967418343
              ],
              [
                23.605865123,
                37.967902159
              ],
              [
                23.605409113,
                37.968547246
              ],
              [
                23.605383437,
                37.968911383
              ],
              [
                23.605590939,
                37.969262539
              ],
              [
                23.605862287,
                37.969478022
              ],
              [
                23.606133635,
                37.969701485
              ],
              [
                23.605351514,
                37.970284085
              ],
              [
                23.604264579,
                37.971130143
              ],
              [
                23.602876387,
                37.971811823
              ],
              [
                23.607124233,
                37.974016791
              ],
              [
                23.60922225,
                37.975244629
              ],
              [
                23.610767167,
                37.976586749
              ],
              [
                23.612073411,
                37.978633205
              ],
              [
                23.612559993,
                37.980286103
              ],
              [
                23.612652788,
                37.982101898
              ],
              [
                23.612258979,
                37.983759192
              ],
              [
                23.611035944,
                37.986120165
              ],
              [
                23.609041948,
                37.988966235
              ],
              [
                23.607876384,
                37.990976725
              ],
              [
                23.607241228,
                37.992766185
              ],
              [
                23.609783448,
                37.99391524
              ],
              [
                23.611808092,
                37.994641038
              ],
              [
                23.612617048,
                37.992661503
              ],
              [
                23.614406828,
                37.990585594
              ],
              [
                23.615843301,
                37.989499018
              ],
              [
                23.619041008,
                37.986062077
              ],
              [
                23.623471295,
                37.983059147
              ],
              [
                23.624900981,
                37.982380615
              ],
              [
                23.626983412,
                37.981680924
              ],
              [
                23.627225715,
                37.981536556
              ],
              [
                23.627653096,
                37.981281913
              ],
              [
                23.628513499,
                37.980353985
              ],
              [
                23.62895611,
                37.979135618
              ],
              [
                23.629402366,
                37.977907171
              ],
              [
                23.629422703,
                37.977851186
              ],
              [
                23.630409495,
                37.977913527
              ],
              [
                23.630509595,
                37.977917234
              ],
              [
                23.631454982,
                37.977950601
              ],
              [
                23.631802087,
                37.972798706
              ],
              [
                23.632356923,
                37.96831216
              ],
              [
                23.63227171,
                37.968208582
              ],
              [
                23.632110492,
                37.967898418
              ],
              [
                23.632051468,
                37.967747641
              ],
              [
                23.632065224,
                37.967368184
              ],
              [
                23.631864689,
                37.967358177
              ],
              [
                23.6318421,
                37.967303424
              ],
              [
                23.631824831,
                37.967168925
              ],
              [
                23.631697456,
                37.967183811
              ],
              [
                23.631315611,
                37.967195215
              ],
              [
                23.631313911,
                37.967161365
              ],
              [
                23.631253274,
                37.966949098
              ],
              [
                23.631708181,
                37.967084772
              ],
              [
                23.631748085,
                37.96696506
              ],
              [
                23.631576863,
                37.966851111
              ],
              [
                23.63171311,
                37.966656473
              ],
              [
                23.632002287,
                37.966497981
              ],
              [
                23.63237488,
                37.966317246
              ],
              [
                23.632650155,
                37.966233829
              ],
              [
                23.632227975,
                37.965903407
              ],
              [
                23.632203877,
                37.965123926
              ],
              [
                23.632172364,
                37.964586354
              ],
              [
                23.632151973,
                37.964191516
              ],
              [
                23.632126021,
                37.964094196
              ],
              [
                23.630965605,
                37.963957023
              ]
            ]
          ]
        ]
      },
      "properties": {
        "id": 5,
        "code": "keratsini_drapetsona",
        "name": "Δήμος Κερατσινίου - Δραπετσώνας",
        "description": "Πραγματικό όριο δήμου από shapefile ΕΓΣΑ87 / EPSG:2100."
      }
    }
  ]
}