{
  "type": "FeatureCollection",
  "name": "urban_units",
  "crs": {
    "type": "name",
    "properties": {
      "name": "EPSG:4326"
    }
  },
  "features": [
    {
      "type": "Feature",
      "geometry": {
        "type": "Polygon",
        "coordinates": [
          [
            [
              23.627495981,
              37.951374915
            ],
            [
              23.62755754,
              37.94791896
            ],
            [
              23.625754332,
              37.947350474
            ],
            [
              23.624125514,
              37.946796677
            ],
            [
              23.622963095,
              37.946396506
            ],
            [
              23.622984651,
              37.948892145
            ],
            [
              23.622959663,
              37.951318543
            ],
            [
              23.627495981,
              37.951374915
            ]
          ]
        ]
      },
      "properties": {
        "gid": 1,
        "onoma": "1",
        "perigrafi": "Δ1",
        "source_file": "ydom_pol_poleodomikes_enotites_gps.shp"
      }
    },
    {
      "type": "Feature",
      "geometry": {
        "type": "Polygon",
        "coordinates": [
          [
            [
              23.624125514,
              37.946796677
            ],
            [
              23.625754332,
              37.947350474
            ],
            [
              23.62755754,
              37.94791896
            ],
            [
              23.627572802,
              37.947808396
            ],
            [
              23.627539881,
              37.946562447
            ],
            [
              23.628765061,
              37.946581843
            ],
            [
              23.629029638,
              37.946598202
            ],
            [
              23.629265278,
              37.946521322
            ],
            [
              23.629223249,
              37.945131743
            ],
            [
              23.627528427,
              37.944947858
            ],
            [
              23.626432389,
              37.944595081
            ],
            [
              23.625826685,
              37.94419728
            ],
            [
              23.625465754,
              37.943854592
            ],
            [
              23.624368715,
              37.943703612
            ],
            [
              23.623389339,
              37.943545236
            ],
            [
              23.623145316,
              37.943512245
            ],
            [
              23.622986477,
              37.943770553
            ],
            [
              23.622963095,
              37.946396506
            ],
            [
              23.624125514,
              37.946796677
            ]
          ]
        ]
      },
      "properties": {
        "gid": 3,
        "onoma": "3",
        "perigrafi": "Δ3",
        "source_file": "ydom_pol_poleodomikes_enotites_gps.shp"
      }
    },
    {
      "type": "Feature",
      "geometry": {
        "type": "Polygon",
        "coordinates": [
          [
            [
              23.622002932,
              37.972161652
            ],
            [
              23.621877595,
              37.972373289
            ],
            [
              23.621349842,
              37.973296694
            ],
            [
              23.62038828,
              37.975007652
            ],
            [
              23.620744835,
              37.975272718
            ],
            [
              23.620290366,
              37.975931042
            ],
            [
              23.620289726,
              37.976055236
            ],
            [
              23.621140751,
              37.976465497
            ],
            [
              23.621326627,
              37.97655148
            ],
            [
              23.621075915,
              37.976678749
            ],
            [
              23.621099811,
              37.976799141
            ],
            [
              23.621780158,
              37.977030316
            ],
            [
              23.621809039,
              37.977135199
            ],
            [
              23.621626909,
              37.977274333
            ],
            [
              23.621707472,
              37.977817949
            ],
            [
              23.622037301,
              37.978517609
            ],
            [
              23.622187448,
              37.978879035
            ],
            [
              23.622328805,
              37.979042496
            ],
            [
              23.626182833,
              37.980123683
            ],
            [
              23.626803698,
              37.979874029
            ],
            [
              23.627322213,
              37.97962839
            ],
            [
              23.628644549,
              37.978957364
            ],
            [
              23.629057288,
              37.978803871
            ],
            [
              23.629085927,
              37.978778261
            ],
            [
              23.629356606,
              37.978033138
            ],
            [
              23.629368406,
              37.977928815
            ],
            [
              23.629378615,
              37.977787584
            ],
            [
              23.628636676,
              37.977618804
            ],
            [
              23.622306232,
              37.971965208
            ],
            [
              23.622002932,
              37.972161652
            ]
          ]
        ]
      },
      "properties": {
        "gid": 5,
        "onoma": "1",
        "perigrafi": "ΑΓ. ΑΝΤΩΝΙΟΣ",
        "source_file": "ydom_pol_poleodomikes_enotites_gps.shp"
      }
    },
    {
      "type": "Feature",
      "geometry": {
        "type": "Polygon",
        "coordinates": [
          [
            [
              23.625539706,
              37.96953626
            ],
            [
              23.625363017,
              37.969574509
            ],
            [
              23.621588929,
              37.971301172
            ],
            [
              23.622306232,
              37.971965208
            ],
            [
              23.628636676,
              37.977618804
            ],
            [
              23.629378615,
              37.977787584
            ],
            [
              23.631458204,
              37.977902782
            ],
            [
              23.631802087,
              37.972798706
            ],
            [
              23.631812185,
              37.972717055
            ],
            [
              23.631692252,
              37.972532503
            ],
            [
              23.631516781,
              37.972326254
            ],
            [
              23.630862417,
              37.971804132
            ],
            [
              23.629896045,
              37.970931725
            ],
            [
              23.629631497,
              37.970892081
            ],
            [
              23.628463137,
              37.970424431
            ],
            [
              23.628392561,
              37.969603012
            ],
            [
              23.628177046,
              37.969591199
            ],
            [
              23.625539706,
              37.96953626
            ]
          ]
        ]
      },
      "properties": {
        "gid": 9,
        "onoma": "5",
        "perigrafi": "ΚΟΚΚΙΝΟΒΡΑΧΟΣ",
        "source_file": "ydom_pol_poleodomikes_enotites_gps.shp"
      }
    },
    {
      "type": "Feature",
      "geometry": {
        "type": "Polygon",
        "coordinates": [
          [
            [
              23.622749862,
              37.966709653
            ],
            [
              23.622023691,
              37.96874103
            ],
            [
              23.621276634,
              37.971012964
            ],
            [
              23.621588929,
              37.971301172
            ],
            [
              23.623043692,
              37.970607241
            ],
            [
              23.625363017,
              37.969574509
            ],
            [
              23.625539706,
              37.96953626
            ],
            [
              23.628177046,
              37.969591199
            ],
            [
              23.628236425,
              37.969482715
            ],
            [
              23.628230534,
              37.968706472
            ],
            [
              23.62772083,
              37.968673812
            ],
            [
              23.627554694,
              37.968564614
            ],
            [
              23.627399423,
              37.968245871
            ],
            [
              23.626824035,
              37.96763083
            ],
            [
              23.62685455,
              37.967413584
            ],
            [
              23.627032686,
              37.967088134
            ],
            [
              23.627122813,
              37.966715832
            ],
            [
              23.62717376,
              37.966335643
            ],
            [
              23.627331419,
              37.966180898
            ],
            [
              23.627851929,
              37.966011776
            ],
            [
              23.628451224,
              37.965773041
            ],
            [
              23.629070672,
              37.965425694
            ],
            [
              23.629521487,
              37.965465926
            ],
            [
              23.629825117,
              37.96552898
            ],
            [
              23.629951876,
              37.965669099
            ],
            [
              23.629950785,
              37.965886439
            ],
            [
              23.630412186,
              37.965771455
            ],
            [
              23.630922065,
              37.965765294
            ],
            [
              23.631401948,
              37.96587547
            ],
            [
              23.632038552,
              37.966017183
            ],
            [
              23.632148115,
              37.965923072
            ],
            [
              23.632073552,
              37.964167566
            ],
            [
              23.629757953,
              37.963892988
            ],
            [
              23.629625586,
              37.963835804
            ],
            [
              23.629220852,
              37.96384353
            ],
            [
              23.628545369,
              37.963938202
            ],
            [
              23.628140995,
              37.964102207
            ],
            [
              23.624886172,
              37.964558311
            ],
            [
              23.623736827,
              37.96472728
            ],
            [
              23.623520086,
              37.964701786
            ],
            [
              23.623414725,
              37.964684941
            ],
            [
              23.622749862,
              37.966709653
            ]
          ]
        ]
      },
      "properties": {
        "gid": 8,
        "onoma": "4",
        "perigrafi": "ΠΑΝ. ΒΛΑΧΕΡΝΩΝ",
        "source_file": "ydom_pol_poleodomikes_enotites_gps.shp"
      }
    },
    {
      "type": "Feature",
      "geometry": {
        "type": "Polygon",
        "coordinates": [
          [
            [
              23.61868012,
              37.951194898
            ],
            [
              23.618577457,
              37.951625784
            ],
            [
              23.61814697,
              37.951936818
            ],
            [
              23.617833167,
              37.952120446
            ],
            [
              23.617848412,
              37.953272899
            ],
            [
              23.617858323,
              37.956724309
            ],
            [
              23.617817898,
              37.957270363
            ],
            [
              23.61779628,
              37.957658406
            ],
            [
              23.617650108,
              37.958882604
            ],
            [
              23.62024706,
              37.958822138
            ],
            [
              23.622135894,
              37.958789068
            ],
            [
              23.622595162,
              37.958740722
            ],
            [
              23.622606677,
              37.957328513
            ],
            [
              23.622711543,
              37.955035102
            ],
            [
              23.62291324,
              37.952974868
            ],
            [
              23.622959663,
              37.951318543
            ],
            [
              23.61868012,
              37.951194898
            ]
          ]
        ]
      },
      "properties": {
        "gid": 11,
        "onoma": "9",
        "perigrafi": "ΕΥΓΕΝΕΙΑ",
        "source_file": "ydom_pol_poleodomikes_enotites_gps.shp"
      }
    },
    {
      "type": "Feature",
      "geometry": {
        "type": "Polygon",
        "coordinates": [
          [
            [
              23.622984651,
              37.948892145
            ],
            [
              23.622018836,
              37.948974068
            ],
            [
              23.620214001,
              37.949201124
            ],
            [
              23.619428648,
              37.949423693
            ],
            [
              23.619144297,
              37.949438297
            ],
            [
              23.617978129,
              37.949372418
            ],
            [
              23.619296005,
              37.950169691
            ],
            [
              23.619198214,
              37.950283601
            ],
            [
              23.617667175,
              37.950240254
            ],
            [
              23.61868012,
              37.951194898
            ],
            [
              23.622959663,
              37.951318543
            ],
            [
              23.622984651,
              37.948892145
            ]
          ]
        ]
      },
      "properties": {
        "gid": 15,
        "onoma": "5",
        "perigrafi": "Δ5",
        "source_file": "ydom_pol_poleodomikes_enotites_gps.shp"
      }
    },
    {
      "type": "Feature",
      "geometry": {
        "type": "Polygon",
        "coordinates": [
          [
            [
              23.615396335,
              37.96574273
            ],
            [
              23.617948392,
              37.968037027
            ],
            [
              23.6185436,
              37.968597839
            ],
            [
              23.621276634,
              37.971012964
            ],
            [
              23.622023691,
              37.96874103
            ],
            [
              23.622749862,
              37.966709653
            ],
            [
              23.623414725,
              37.964684941
            ],
            [
              23.62327583,
              37.964662733
            ],
            [
              23.622512456,
              37.964578901
            ],
            [
              23.621484729,
              37.964477752
            ],
            [
              23.620833949,
              37.964396651
            ],
            [
              23.620077916,
              37.964308871
            ],
            [
              23.618342102,
              37.964115254
            ],
            [
              23.616845166,
              37.963950426
            ],
            [
              23.615082276,
              37.963757135
            ],
            [
              23.614275212,
              37.963577275
            ],
            [
              23.6138913,
              37.963870981
            ],
            [
              23.613537062,
              37.964114328
            ],
            [
              23.614020226,
              37.964527314
            ],
            [
              23.614254537,
              37.964718257
            ],
            [
              23.615396335,
              37.96574273
            ]
          ]
        ]
      },
      "properties": {
        "gid": 7,
        "onoma": "3",
        "perigrafi": "ΑΣΤΡΟ ΑΜΦΙΑΛΗΣ",
        "source_file": "ydom_pol_poleodomikes_enotites_gps.shp"
      }
    },
    {
      "type": "Feature",
      "geometry": {
        "type": "Polygon",
        "coordinates": [
          [
            [
              23.622135894,
              37.958789068
            ],
            [
              23.62024706,
              37.958822138
            ],
            [
              23.617650108,
              37.958882604
            ],
            [
              23.616465681,
              37.959024114
            ],
            [
              23.614521708,
              37.959561118
            ],
            [
              23.614481722,
              37.95970847
            ],
            [
              23.613518876,
              37.960101186
            ],
            [
              23.612856807,
              37.9606205
            ],
            [
              23.612337601,
              37.961013245
            ],
            [
              23.612051857,
              37.961283982
            ],
            [
              23.61199193,
              37.961493365
            ],
            [
              23.611499848,
              37.961848805
            ],
            [
              23.611046183,
              37.96222555
            ],
            [
              23.611252414,
              37.962986607
            ],
            [
              23.611521614,
              37.963300417
            ],
            [
              23.61168751,
              37.963448447
            ],
            [
              23.612137364,
              37.963667274
            ],
            [
              23.612499063,
              37.963870284
            ],
            [
              23.612685386,
              37.963863136
            ],
            [
              23.612813617,
              37.963716075
            ],
            [
              23.612892969,
              37.963541686
            ],
            [
              23.613537062,
              37.964114328
            ],
            [
              23.6138913,
              37.963870981
            ],
            [
              23.614275212,
              37.963577275
            ],
            [
              23.615082276,
              37.963757135
            ],
            [
              23.616845166,
              37.963950426
            ],
            [
              23.618342102,
              37.964115254
            ],
            [
              23.620077916,
              37.964308871
            ],
            [
              23.620833949,
              37.964396651
            ],
            [
              23.621484729,
              37.964477752
            ],
            [
              23.622490218,
              37.962843221
            ],
            [
              23.622576382,
              37.960375101
            ],
            [
              23.622600915,
              37.959412661
            ],
            [
              23.622595162,
              37.958740722
            ],
            [
              23.622135894,
              37.958789068
            ]
          ]
        ]
      },
      "properties": {
        "gid": 12,
        "onoma": "7 (CHECK)",
        "perigrafi": "ΑΓ. ΓΙΩΡΓΗΣ",
        "source_file": "ydom_pol_poleodomikes_enotites_gps.shp"
      }
    },
    {
      "type": "Feature",
      "geometry": {
        "type": "Polygon",
        "coordinates": [
          [
            [
              23.628406173,
              37.951338101
            ],
            [
              23.635111822,
              37.951334851
            ],
            [
              23.635125771,
              37.950316574
            ],
            [
              23.635260352,
              37.950201391
            ],
            [
              23.635300208,
              37.950201292
            ],
            [
              23.635375917,
              37.949983933
            ],
            [
              23.635384864,
              37.949911065
            ],
            [
              23.63540317,
              37.949780542
            ],
            [
              23.635403613,
              37.949688768
            ],
            [
              23.635401992,
              37.949457329
            ],
            [
              23.635373666,
              37.949350193
            ],
            [
              23.635363087,
              37.949268802
            ],
            [
              23.635352561,
              37.949221697
            ],
            [
              23.633824867,
              37.94920626
            ],
            [
              23.631998939,
              37.949048513
            ],
            [
              23.631320735,
              37.948957982
            ],
            [
              23.631132597,
              37.948837092
            ],
            [
              23.629998402,
              37.94888336
            ],
            [
              23.629743774,
              37.948835986
            ],
            [
              23.629509141,
              37.948711051
            ],
            [
              23.628560775,
              37.948219038
            ],
            [
              23.62783709,
              37.947882974
            ],
            [
              23.627572802,
              37.947808396
            ],
            [
              23.62755754,
              37.94791896
            ],
            [
              23.627495981,
              37.951374915
            ],
            [
              23.628406173,
              37.951338101
            ]
          ]
        ]
      },
      "properties": {
        "gid": 2,
        "onoma": "2",
        "perigrafi": "Δ2",
        "source_file": "ydom_pol_poleodomikes_enotites_gps.shp"
      }
    },
    {
      "type": "Feature",
      "geometry": {
        "type": "Polygon",
        "coordinates": [
          [
            [
              23.616465681,
              37.959024114
            ],
            [
              23.617650108,
              37.958882604
            ],
            [
              23.61779628,
              37.957658406
            ],
            [
              23.617817898,
              37.957270363
            ],
            [
              23.617858323,
              37.956724309
            ],
            [
              23.617848412,
              37.953272899
            ],
            [
              23.617833167,
              37.952120446
            ],
            [
              23.61814697,
              37.951936818
            ],
            [
              23.618577457,
              37.951625784
            ],
            [
              23.61868012,
              37.951194898
            ],
            [
              23.617667175,
              37.950240254
            ],
            [
              23.615975623,
              37.950209976
            ],
            [
              23.614866201,
              37.950192533
            ],
            [
              23.614011435,
              37.95018504
            ],
            [
              23.612072511,
              37.950160637
            ],
            [
              23.611214833,
              37.950160765
            ],
            [
              23.611115705,
              37.95009936
            ],
            [
              23.611010968,
              37.949170686
            ],
            [
              23.609715561,
              37.949216661
            ],
            [
              23.609669481,
              37.949274793
            ],
            [
              23.609949232,
              37.949820602
            ],
            [
              23.610718929,
              37.951039291
            ],
            [
              23.609880405,
              37.951038969
            ],
            [
              23.609923665,
              37.951157867
            ],
            [
              23.610238679,
              37.952467293
            ],
            [
              23.611210892,
              37.952498214
            ],
            [
              23.611348928,
              37.952580174
            ],
            [
              23.611523008,
              37.953511654
            ],
            [
              23.612155523,
              37.953688958
            ],
            [
              23.613056217,
              37.953917029
            ],
            [
              23.613798646,
              37.954416252
            ],
            [
              23.614061908,
              37.954688795
            ],
            [
              23.614210946,
              37.955069713
            ],
            [
              23.613427789,
              37.955550752
            ],
            [
              23.613363765,
              37.955699344
            ],
            [
              23.61409239,
              37.956357781
            ],
            [
              23.615512297,
              37.956665157
            ],
            [
              23.615063407,
              37.95814628
            ],
            [
              23.614944954,
              37.958301138
            ],
            [
              23.614521708,
              37.959561118
            ],
            [
              23.616465681,
              37.959024114
            ]
          ]
        ]
      },
      "properties": {
        "gid": 13,
        "onoma": "8 (CHECK)",
        "perigrafi": "ΧΑΡΑΥΓΗ",
        "source_file": "ydom_pol_poleodomikes_enotites_gps.shp"
      }
    },
    {
      "type": "Feature",
      "geometry": {
        "type": "Polygon",
        "coordinates": [
          [
            [
              23.622512456,
              37.964578901
            ],
            [
              23.62327583,
              37.964662733
            ],
            [
              23.623414725,
              37.964684941
            ],
            [
              23.623520086,
              37.964701786
            ],
            [
              23.623736827,
              37.96472728
            ],
            [
              23.624886172,
              37.964558311
            ],
            [
              23.628140995,
              37.964102207
            ],
            [
              23.628545369,
              37.963938202
            ],
            [
              23.628545354,
              37.963903079
            ],
            [
              23.6285076,
              37.963908826
            ],
            [
              23.628500185,
              37.963834678
            ],
            [
              23.628502039,
              37.963310081
            ],
            [
              23.628491843,
              37.962250692
            ],
            [
              23.628506673,
              37.961245987
            ],
            [
              23.628527063,
              37.958771298
            ],
            [
              23.628521502,
              37.958094698
            ],
            [
              23.628521678,
              37.958066914
            ],
            [
              23.625218174,
              37.958080952
            ],
            [
              23.622595162,
              37.958740722
            ],
            [
              23.622600915,
              37.959412661
            ],
            [
              23.622576382,
              37.960375101
            ],
            [
              23.622490218,
              37.962843221
            ],
            [
              23.621484729,
              37.964477752
            ],
            [
              23.622512456,
              37.964578901
            ]
          ]
        ]
      },
      "properties": {
        "gid": 10,
        "onoma": "6 (CHECK)",
        "perigrafi": "ΤΑΜΠΟΥΡΙΑ",
        "source_file": "ydom_pol_poleodomikes_enotites_gps.shp"
      }
    },
    {
      "type": "Feature",
      "geometry": {
        "type": "Polygon",
        "coordinates": [
          [
            [
              23.62291324,
              37.952974868
            ],
            [
              23.622711543,
              37.955035102
            ],
            [
              23.622606677,
              37.957328513
            ],
            [
              23.622595162,
              37.958740722
            ],
            [
              23.625218174,
              37.958080952
            ],
            [
              23.628521678,
              37.958066914
            ],
            [
              23.628528917,
              37.956919452
            ],
            [
              23.628536332,
              37.955875819
            ],
            [
              23.628514088,
              37.954732087
            ],
            [
              23.62851454,
              37.954686829
            ],
            [
              23.628494238,
              37.953718687
            ],
            [
              23.627464786,
              37.953690363
            ],
            [
              23.627462714,
              37.953609341
            ],
            [
              23.627446422,
              37.953609153
            ],
            [
              23.62745598,
              37.95334612
            ],
            [
              23.627451127,
              37.953156422
            ],
            [
              23.627465791,
              37.952054207
            ],
            [
              23.627925893,
              37.952054657
            ],
            [
              23.628024691,
              37.952048636
            ],
            [
              23.628147055,
              37.951979806
            ],
            [
              23.628405635,
              37.951817437
            ],
            [
              23.628406173,
              37.951338101
            ],
            [
              23.627495981,
              37.951374915
            ],
            [
              23.622959663,
              37.951318543
            ],
            [
              23.62291324,
              37.952974868
            ]
          ]
        ]
      },
      "properties": {
        "gid": 14,
        "onoma": "10 (CHECK)",
        "perigrafi": "ΑΝΑΛΗΨΗ",
        "source_file": "ydom_pol_poleodomikes_enotites_gps.shp"
      }
    },
    {
      "type": "Feature",
      "geometry": {
        "type": "Polygon",
        "coordinates": [
          [
            [
              23.62783709,
              37.947882974
            ],
            [
              23.628560775,
              37.948219038
            ],
            [
              23.629509141,
              37.948711051
            ],
            [
              23.629743774,
              37.948835986
            ],
            [
              23.629998402,
              37.94888336
            ],
            [
              23.631132597,
              37.948837092
            ],
            [
              23.631320735,
              37.948957982
            ],
            [
              23.631998939,
              37.949048513
            ],
            [
              23.633824867,
              37.94920626
            ],
            [
              23.635352561,
              37.949221697
            ],
            [
              23.635333699,
              37.949137283
            ],
            [
              23.635334052,
              37.948787596
            ],
            [
              23.635378354,
              37.948445477
            ],
            [
              23.635410238,
              37.948159668
            ],
            [
              23.635520173,
              37.947213241
            ],
            [
              23.635535644,
              37.946942928
            ],
            [
              23.635512489,
              37.946741149
            ],
            [
              23.6353472,
              37.946276772
            ],
            [
              23.635330953,
              37.946257224
            ],
            [
              23.635275053,
              37.946314998
            ],
            [
              23.635078322,
              37.946454109
            ],
            [
              23.634832579,
              37.946593067
            ],
            [
              23.634606478,
              37.946724324
            ],
            [
              23.634361541,
              37.946700277
            ],
            [
              23.63415639,
              37.946559918
            ],
            [
              23.633902114,
              37.946442693
            ],
            [
              23.633667597,
              37.94629448
            ],
            [
              23.633648879,
              37.946115889
            ],
            [
              23.63347441,
              37.94571947
            ],
            [
              23.633310091,
              37.945253221
            ],
            [
              23.633184017,
              37.944981149
            ],
            [
              23.632889884,
              37.944995756
            ],
            [
              23.632184305,
              37.944962504
            ],
            [
              23.629890049,
              37.945079506
            ],
            [
              23.629223249,
              37.945131743
            ],
            [
              23.629265278,
              37.946521322
            ],
            [
              23.629029638,
              37.946598202
            ],
            [
              23.628765061,
              37.946581843
            ],
            [
              23.627539881,
              37.946562447
            ],
            [
              23.627572802,
              37.947808396
            ],
            [
              23.62783709,
              37.947882974
            ]
          ]
        ]
      },
      "properties": {
        "gid": 4,
        "onoma": "4",
        "perigrafi": "Δ4",
        "source_file": "ydom_pol_poleodomikes_enotites_gps.shp"
      }
    },
    {
      "type": "Feature",
      "geometry": {
        "type": "Polygon",
        "coordinates": [
          [
            [
              23.621588929,
              37.971301172
            ],
            [
              23.621276634,
              37.971012964
            ],
            [
              23.6185436,
              37.968597839
            ],
            [
              23.617948392,
              37.968037027
            ],
            [
              23.615396335,
              37.96574273
            ],
            [
              23.614254537,
              37.964718257
            ],
            [
              23.614121649,
              37.96481873
            ],
            [
              23.613511331,
              37.965282462
            ],
            [
              23.612550732,
              37.965232729
            ],
            [
              23.61228605,
              37.965224094
            ],
            [
              23.612164354,
              37.965992155
            ],
            [
              23.61207403,
              37.966387732
            ],
            [
              23.611983827,
              37.966760022
            ],
            [
              23.611913356,
              37.967109091
            ],
            [
              23.61185371,
              37.967264139
            ],
            [
              23.611559034,
              37.967364075
            ],
            [
              23.611323883,
              37.96733225
            ],
            [
              23.610902604,
              37.967268759
            ],
            [
              23.610113642,
              37.966741148
            ],
            [
              23.609206754,
              37.967350995
            ],
            [
              23.608674198,
              37.967773676
            ],
            [
              23.608206107,
              37.968169837
            ],
            [
              23.60871008,
              37.968402537
            ],
            [
              23.608027019,
              37.969626696
            ],
            [
              23.609036739,
              37.969668868
            ],
            [
              23.609036163,
              37.969777537
            ],
            [
              23.608976344,
              37.969963632
            ],
            [
              23.608857612,
              37.970165055
            ],
            [
              23.609736667,
              37.97081224
            ],
            [
              23.610127646,
              37.971046404
            ],
            [
              23.610342665,
              37.971179074
            ],
            [
              23.610439898,
              37.971334641
            ],
            [
              23.610684744,
              37.971389787
            ],
            [
              23.610962038,
              37.970870635
            ],
            [
              23.611170774,
              37.97033573
            ],
            [
              23.611368637,
              37.970002608
            ],
            [
              23.612573733,
              37.970185114
            ],
            [
              23.61261018,
              37.970713067
            ],
            [
              23.612573708,
              37.972055813
            ],
            [
              23.612530651,
              37.972785322
            ],
            [
              23.612547896,
              37.973235588
            ],
            [
              23.612674512,
              37.973399012
            ],
            [
              23.612938571,
              37.973531839
            ],
            [
              23.613124226,
              37.973656645
            ],
            [
              23.614320393,
              37.97368386
            ],
            [
              23.614555566,
              37.97371568
            ],
            [
              23.615152333,
              37.973981549
            ],
            [
              23.615896716,
              37.974146989
            ],
            [
              23.61649329,
              37.974451662
            ],
            [
              23.620289726,
              37.976055236
            ],
            [
              23.620290366,
              37.975931042
            ],
            [
              23.620744835,
              37.975272718
            ],
            [
              23.62038828,
              37.975007652
            ],
            [
              23.621349842,
              37.973296694
            ],
            [
              23.621877595,
              37.972373289
            ],
            [
              23.622002932,
              37.972161652
            ],
            [
              23.622306232,
              37.971965208
            ],
            [
              23.621588929,
              37.971301172
            ]
          ]
        ]
      },
      "properties": {
        "gid": 6,
        "onoma": "2",
        "perigrafi": "ΑΓ. ΜΗΝΑΣ",
        "source_file": "ydom_pol_poleodomikes_enotites_gps.shp"
      }
    }
  ]
}